STARLINK-30422
1 57826U 23138U   26061.16668981  .01414995  00000+0  66265-1 0  9993
2 57826  42.9998 276.1622 0002326 285.2500  72.5337 15.16004169  5760
